{"type": "FeatureCollection", "features": [{"type": "Feature", "id": "EQ15651931732972Centroid", "properties": {"description": "Earthquake in South Of Java, Indonesia", "name": "Earthquake in South Of Java, Indonesia", "htmldescription": "Green Earthquake in South Of Java, Indonesia at: 14 Sep 2026 09:27:38.", "link": "https://www.gdacs.org/report.aspx?eventtype=EQ&eventid=1565193&episodeid=1732972", "featureIndex": "0", "iconeventlink": "https://www.gdacs.org/images/gdacs_icons/maps/Green/EQ.png", "iconitemlink": "https://www.gdacs.org/images/gdacs_icons/maps/Green/EQ.png", "alertlevel": "Green", "alertscore": "0", "alertlevelepisode": "Green", "alertscoreepisode": "0", "eventtype": "EQ", "eventid": "1565193", "episodeid": "1732972", "eventname": "", "fromdate": "14 Sep 2026 09:27:38", "todate": "14 Sep 2026 09:27:38", "country": "South Of Java, Indonesia", "countrylist": "South Of Java, Indonesia", "iso3": "", "severity": "5.5", "latitude": "-8.5419", "longitude": "105.8726", "imageoverview": "https://www.gdacs.org/contentdata/resources/imgtemp/gdacs/eq/eq1732972_2.png", "polygonlabel": "Centroid", "Class": "Point_Centroid"}, "geometry": {"type": "Point", "coordinates": [105.8726, -8.5419]}}, {"type": "Feature", "id": "EQ15651931732972Circle", "properties": {"description": "Earthquake in South Of Java, Indonesia", "name": "Earthquake in South Of Java, Indonesia", "htmldescription": "Green Earthquake in South Of Java, Indonesia at: 14 Sep 2026 09:27:38.", "link": "https://www.gdacs.org/report.aspx?eventtype=EQ&eventid=1565193&episodeid=1732972", "featureIndex": "1", "iconeventlink": "https://www.gdacs.org/images/gdacs_icons/maps/Green/EQ.png", "iconitemlink": "https://www.gdacs.org/images/gdacs_icons/maps/Green/EQ.png", "alertlevel": "Green", "eventtype": "EQ", "eventname": "", "polygonlabel": "100km", "polygontype": "Circle", "fromdate": "14 Sep 2026 09:27:38", "todate": "14 Sep 2026 09:27:38", "country": "South Of Java, Indonesia", "countrylist": "South Of Java, Indonesia", "iso3": "", "severity": "5.5", "latitude": "-8.5419", "longitude": "105.8726", "imageoverview": "https://www.gdacs.org/contentdata/resources/imgtemp/gdacs/eq/eq1732972_2.png", "Class": "Poly_Circle"}, "geometry": {"type": "Polygon", "coordinates": [[[106.784, -8.542], [106.783, -8.51], [106.781, -8.479], [106.779, -8.448], [106.775, -8.417], [106.77, -8.385], [106.764, -8.355], [106.757, -8.324], [106.748, -8.294], [106.739, -8.264], [106.729, -8.234], [106.717, -8.204], [106.705, -8.175], [106.691, -8.147], [106.677, -8.119], [106.662, -8.091], [106.645, -8.064], [106.628, -8.038], [106.61, -8.012], [106.59, -7.987], [106.57, -7.963], [106.55, -7.939], [106.528, -7.916], [106.505, -7.894], [106.482, -7.872], [106.458, -7.852], [106.433, -7.832], [106.408, -7.813], [106.382, -7.795], [106.355, -7.778], [106.328, -7.762], [106.3, -7.746], [106.272, -7.732], [106.243, -7.719], [106.214, -7.707], [106.184, -7.695], [106.154, -7.685], [106.124, -7.676], [106.093, -7.668], [106.062, -7.661], [106.031, -7.655], [105.999, -7.65], [105.968, -7.646], [105.936, -7.643], [105.904, -7.642], [105.873, -7.641], [105.841, -7.642], [105.809, -7.643], [105.777, -7.646], [105.746, -7.65], [105.714, -7.655], [105.683, -7.661], [105.652, -7.668], [105.621, -7.676], [105.591, -7.685], [105.561, -7.695], [105.531, -7.707], [105.502, -7.719], [105.473, -7.732], [105.445, -7.746], [105.417, -7.762], [105.39, -7.778], [105.363, -7.795], [105.337, -7.813], [105.312, -7.832], [105.287, -7.852], [105.263, -7.872], [105.24, -7.894], [105.217, -7.916], [105.196, -7.939], [105.175, -7.963], [105.155, -7.987], [105.136, -8.012], [105.117, -8.038], [105.1, -8.064], [105.084, -8.091], [105.068, -8.119], [105.054, -8.147], [105.04, -8.175], [105.028, -8.204], [105.017, -8.234], [105.006, -8.264], [104.997, -8.294], [104.989, -8.324], [104.982, -8.355], [104.975, -8.385], [104.97, -8.417], [104.967, -8.448], [104.964, -8.479], [104.962, -8.51], [104.962, -8.542], [104.962, -8.573], [104.964, -8.605], [104.967, -8.636], [104.97, -8.667], [104.975, -8.698], [104.982, -8.729], [104.989, -8.76], [104.997, -8.79], [105.006, -8.82], [105.017, -8.85], [105.028, -8.879], [105.04, -8.908], [105.054, -8.937], [105.068, -8.965], [105.084, -8.992], [105.1, -9.019], [105.117, -9.046], [105.136, -9.071], [105.155, -9.097], [105.175, -9.121], [105.196, -9.145], [105.217, -9.168], [105.24, -9.19], [105.263, -9.211], [105.287, -9.232], [105.312, -9.252], [105.337, -9.271], [105.363, -9.289], [105.39, -9.306], [105.417, -9.322], [105.445, -9.337], [105.473, -9.352], [105.502, -9.365], [105.531, -9.377], [105.561, -9.388], [105.591, -9.399], [105.621, -9.408], [105.652, -9.416], [105.683, -9.423], [105.714, -9.429], [105.746, -9.434], [105.777, -9.438], [105.809, -9.441], [105.841, -9.442], [105.873, -9.443], [105.904, -9.442], [105.936, -9.441], [105.968, -9.438], [105.999, -9.434], [106.031, -9.429], [106.062, -9.423], [106.093, -9.416], [106.124, -9.408], [106.154, -9.399], [106.184, -9.388], [106.214, -9.377], [106.243, -9.365], [106.272, -9.352], [106.3, -9.337], [106.328, -9.322], [106.355, -9.306], [106.382, -9.289], [106.408, -9.271], [106.433, -9.252], [106.458, -9.232], [106.482, -9.211], [106.505, -9.19], [106.528, -9.168], [106.55, -9.145], [106.57, -9.121], [106.59, -9.097], [106.61, -9.071], [106.628, -9.046], [106.645, -9.019], [106.662, -8.992], [106.677, -8.965], [106.691, -8.937], [106.705, -8.908], [106.717, -8.879], [106.729, -8.85], [106.739, -8.82], [106.748, -8.79], [106.757, -8.76], [106.764, -8.729], [106.77, -8.698], [106.775, -8.667], [106.779, -8.636], [106.781, -8.605], [106.783, -8.573], [106.784, -8.542]]]}}, {"type": "Feature", "id": "EQ15652031732984Centroid", "properties": {"description": "Earthquake in Indonesia", "name": "Earthquake in Indonesia", "htmldescription": "Green Earthquake in Indonesia at: 14 Sep 2026 10:58:03.", "link": "https://www.gdacs.org/report.aspx?eventtype=EQ&eventid=1565203&episodeid=1732984", "featureIndex": "2", "iconeventlink": "https://www.gdacs.org/images/gdacs_icons/maps/Green/EQ.png", "iconitemlink": "https://www.gdacs.org/images/gdacs_icons/maps/Green/EQ.png", "alertlevel": "Green", "alertscore": "0", "alertlevelepisode": "Green", "alertscoreepisode": "0", "eventtype": "EQ", "eventid": "1565203", "episodeid": "1732984", "eventname": "", "fromdate": "14 Sep 2026 10:58:03", "todate": "14 Sep 2026 10:58:03", "country": "Indonesia", "countrylist": "Indonesia", "iso3": "IDN", "severity": "5.6", "latitude": "2.4223", "longitude": "128.1704", "imageoverview": "https://www.gdacs.org/contentdata/resources/imgtemp/gdacs/eq/eq1732984_2.png", "polygonlabel": "Centroid", "Class": "Point_Centroid"}, "geometry": {"type": "Point", "coordinates": [128.1704, 2.4223]}}, {"type": "Feature", "id": "EQ15652031732984Circle", "properties": {"description": "Earthquake in Indonesia", "name": "Earthquake in Indonesia", "htmldescription": "Green Earthquake in Indonesia at: 14 Sep 2026 10:58:03.", "link": "https://www.gdacs.org/report.aspx?eventtype=EQ&eventid=1565203&episodeid=1732984", "featureIndex": "3", "iconeventlink": "https://www.gdacs.org/images/gdacs_icons/maps/Green/EQ.png", "iconitemlink": "https://www.gdacs.org/images/gdacs_icons/maps/Green/EQ.png", "alertlevel": "Green", "eventtype": "EQ", "eventname": "", "polygonlabel": "100km", "polygontype": "Circle", "fromdate": "14 Sep 2026 10:58:03", "todate": "14 Sep 2026 10:58:03", "country": "Indonesia", "countrylist": "Indonesia", "iso3": "IDN", "severity": "5.6", "latitude": "2.4223", "longitude": "128.1704", "imageoverview": "https://www.gdacs.org/contentdata/resources/imgtemp/gdacs/eq/eq1732984_2.png", "Class": "Poly_Circle"}, "geometry": {"type": "Polygon", "coordinates": [[[129.072, 2.422], [129.072, 2.454], [129.07, 2.485], [129.067, 2.516], [129.063, 2.548], [129.058, 2.579], [129.052, 2.61], [129.045, 2.64], [129.037, 2.671], [129.028, 2.701], [129.018, 2.73], [129.006, 2.76], [128.994, 2.789], [128.981, 2.817], [128.967, 2.845], [128.951, 2.873], [128.935, 2.9], [128.918, 2.926], [128.9, 2.952], [128.881, 2.977], [128.861, 3.001], [128.84, 3.025], [128.819, 3.048], [128.797, 3.07], [128.774, 3.092], [128.75, 3.112], [128.726, 3.132], [128.7, 3.151], [128.675, 3.169], [128.648, 3.186], [128.621, 3.203], [128.594, 3.218], [128.566, 3.232], [128.537, 3.245], [128.508, 3.258], [128.479, 3.269], [128.449, 3.279], [128.419, 3.288], [128.389, 3.296], [128.358, 3.304], [128.327, 3.31], [128.296, 3.314], [128.265, 3.318], [128.233, 3.321], [128.202, 3.323], [128.17, 3.323], [128.139, 3.323], [128.108, 3.321], [128.076, 3.318], [128.045, 3.314], [128.014, 3.31], [127.983, 3.304], [127.952, 3.296], [127.922, 3.288], [127.892, 3.279], [127.862, 3.269], [127.833, 3.258], [127.804, 3.245], [127.775, 3.232], [127.747, 3.218], [127.72, 3.203], [127.693, 3.186], [127.666, 3.169], [127.64, 3.151], [127.615, 3.132], [127.591, 3.112], [127.567, 3.092], [127.544, 3.07], [127.522, 3.048], [127.5, 3.025], [127.48, 3.001], [127.46, 2.977], [127.441, 2.952], [127.423, 2.926], [127.406, 2.9], [127.389, 2.873], [127.374, 2.845], [127.36, 2.817], [127.347, 2.789], [127.334, 2.76], [127.323, 2.73], [127.313, 2.701], [127.304, 2.671], [127.295, 2.64], [127.288, 2.61], [127.282, 2.579], [127.277, 2.548], [127.274, 2.516], [127.271, 2.485], [127.269, 2.454], [127.269, 2.422], [127.269, 2.391], [127.271, 2.359], [127.274, 2.328], [127.277, 2.297], [127.282, 2.266], [127.288, 2.235], [127.295, 2.204], [127.304, 2.174], [127.313, 2.144], [127.323, 2.114], [127.334, 2.085], [127.347, 2.056], [127.36, 2.027], [127.374, 1.999], [127.389, 1.972], [127.406, 1.945], [127.423, 1.919], [127.441, 1.893], [127.46, 1.868], [127.48, 1.843], [127.5, 1.819], [127.522, 1.796], [127.544, 1.774], [127.567, 1.753], [127.591, 1.732], [127.615, 1.712], [127.64, 1.693], [127.666, 1.675], [127.693, 1.658], [127.72, 1.642], [127.747, 1.627], [127.775, 1.613], [127.804, 1.599], [127.833, 1.587], [127.862, 1.576], [127.892, 1.565], [127.922, 1.556], [127.952, 1.548], [127.983, 1.541], [128.014, 1.535], [128.045, 1.53], [128.076, 1.526], [128.108, 1.524], [128.139, 1.522], [128.17, 1.521], [128.202, 1.522], [128.233, 1.524], [128.265, 1.526], [128.296, 1.53], [128.327, 1.535], [128.358, 1.541], [128.389, 1.548], [128.419, 1.556], [128.449, 1.565], [128.479, 1.576], [128.508, 1.587], [128.537, 1.599], [128.566, 1.613], [128.594, 1.627], [128.621, 1.642], [128.648, 1.658], [128.675, 1.675], [128.7, 1.693], [128.726, 1.712], [128.75, 1.732], [128.774, 1.753], [128.797, 1.774], [128.819, 1.796], [128.84, 1.819], [128.861, 1.843], [128.881, 1.868], [128.9, 1.893], [128.918, 1.919], [128.935, 1.945], [128.951, 1.972], [128.967, 1.999], [128.981, 2.027], [128.994, 2.056], [129.006, 2.085], [129.018, 2.114], [129.028, 2.144], [129.037, 2.174], [129.045, 2.204], [129.052, 2.235], [129.058, 2.266], [129.063, 2.297], [129.067, 2.328], [129.07, 2.359], [129.072, 2.391], [129.072, 2.422]]]}}, {"type": "Feature", "id": "EQ15666781734668Centroid", "properties": {"description": "Earthquake in Fox Islands, Aleutian Islands", "name": "Earthquake in Fox Islands, Aleutian Islands", "htmldescription": "Green Earthquake in Fox Islands, Aleutian Islands at: 17 Sep 2026 14:19:52.", "link": "https://www.gdacs.org/report.aspx?eventtype=EQ&eventid=1566678&episodeid=1734668", "featureIndex": "4", "iconeventlink": "https://www.gdacs.org/images/gdacs_icons/maps/Green/EQ.png", "iconitemlink": "https://www.gdacs.org/images/gdacs_icons/maps/Green/EQ.png", "alertlevel": "Green", "alertscore": "0", "alertlevelepisode": "Green", "alertscoreepisode": "0", "eventtype": "EQ", "eventid": "1566678", "episodeid": "1734668", "eventname": "", "fromdate": "17 Sep 2026 14:19:52", "todate": "17 Sep 2026 14:19:52", "country": "Fox Islands, Aleutian Islands", "countrylist": "Fox Islands, Aleutian Islands", "iso3": "", "severity": "6.5", "latitude": "52.8594", "longitude": "-171.3756", "imageoverview": "https://www.gdacs.org/contentdata/resources/imgtemp/gdacs/eq/eq1734668_2.png", "polygonlabel": "Centroid", "Class": "Point_Centroid"}, "geometry": {"type": "Point", "coordinates": [-171.3756, 52.8594]}}, {"type": "Feature", "id": "EQ15666781734668Circle", "properties": {"description": "Earthquake in Fox Islands, Aleutian Islands", "name": "Earthquake in Fox Islands, Aleutian Islands", "htmldescription": "Green Earthquake in Fox Islands, Aleutian Islands at: 17 Sep 2026 14:19:52.", "link": "https://www.gdacs.org/report.aspx?eventtype=EQ&eventid=1566678&episodeid=1734668", "featureIndex": "5", "iconeventlink": "https://www.gdacs.org/images/gdacs_icons/maps/Green/EQ.png", "iconitemlink": "https://www.gdacs.org/images/gdacs_icons/maps/Green/EQ.png", "alertlevel": "Green", "eventtype": "EQ", "eventname": "", "polygonlabel": "100km", "polygontype": "Circle", "fromdate": "17 Sep 2026 14:19:52", "todate": "17 Sep 2026 14:19:52", "country": "Fox Islands, Aleutian Islands", "countrylist": "Fox Islands, Aleutian Islands", "iso3": "", "severity": "6.5", "latitude": "52.8594", "longitude": "-171.3756", "imageoverview": "https://www.gdacs.org/contentdata/resources/imgtemp/gdacs/eq/eq1734668_2.png", "Class": "Poly_Circle"}, "geometry": {"type": "Polygon", "coordinates": [[[-169.883, 52.859], [-169.884, 52.891], [-169.887, 52.922], [-169.892, 52.954], [-169.898, 52.985], [-169.906, 53.016], [-169.916, 53.047], [-169.928, 53.077], [-169.941, 53.108], [-169.957, 53.138], [-169.973, 53.168], [-169.992, 53.197], [-170.012, 53.226], [-170.034, 53.254], [-170.058, 53.282], [-170.083, 53.31], [-170.11, 53.337], [-170.139, 53.363], [-170.168, 53.389], [-170.2, 53.414], [-170.233, 53.438], [-170.267, 53.462], [-170.302, 53.485], [-170.339, 53.507], [-170.377, 53.529], [-170.416, 53.55], [-170.457, 53.569], [-170.499, 53.588], [-170.541, 53.606], [-170.585, 53.623], [-170.63, 53.64], [-170.675, 53.655], [-170.721, 53.669], [-170.769, 53.682], [-170.817, 53.695], [-170.865, 53.706], [-170.915, 53.716], [-170.964, 53.725], [-171.015, 53.734], [-171.065, 53.741], [-171.116, 53.747], [-171.168, 53.752], [-171.22, 53.755], [-171.272, 53.758], [-171.324, 53.76], [-171.376, 53.76], [-171.428, 53.76], [-171.48, 53.758], [-171.532, 53.755], [-171.583, 53.752], [-171.635, 53.747], [-171.686, 53.741], [-171.737, 53.734], [-171.787, 53.725], [-171.837, 53.716], [-171.886, 53.706], [-171.935, 53.695], [-171.982, 53.682], [-172.03, 53.669], [-172.076, 53.655], [-172.122, 53.64], [-172.166, 53.623], [-172.21, 53.606], [-172.253, 53.588], [-172.294, 53.569], [-172.335, 53.55], [-172.374, 53.529], [-172.412, 53.507], [-172.449, 53.485], [-172.484, 53.462], [-172.519, 53.438], [-172.551, 53.414], [-172.583, 53.389], [-172.613, 53.363], [-172.641, 53.337], [-172.668, 53.31], [-172.693, 53.282], [-172.717, 53.254], [-172.739, 53.226], [-172.759, 53.197], [-172.778, 53.168], [-172.795, 53.138], [-172.81, 53.108], [-172.823, 53.077], [-172.835, 53.047], [-172.845, 53.016], [-172.853, 52.985], [-172.86, 52.954], [-172.864, 52.922], [-172.867, 52.891], [-172.868, 52.859], [-172.867, 52.828], [-172.864, 52.797], [-172.86, 52.765], [-172.853, 52.734], [-172.845, 52.703], [-172.835, 52.672], [-172.823, 52.641], [-172.81, 52.611], [-172.795, 52.581], [-172.778, 52.551], [-172.759, 52.522], [-172.739, 52.493], [-172.717, 52.464], [-172.693, 52.436], [-172.668, 52.409], [-172.641, 52.382], [-172.613, 52.356], [-172.583, 52.33], [-172.551, 52.305], [-172.519, 52.28], [-172.484, 52.257], [-172.449, 52.234], [-172.412, 52.211], [-172.374, 52.19], [-172.335, 52.169], [-172.294, 52.149], [-172.253, 52.131], [-172.21, 52.113], [-172.166, 52.095], [-172.122, 52.079], [-172.076, 52.064], [-172.03, 52.05], [-171.982, 52.036], [-171.935, 52.024], [-171.886, 52.013], [-171.837, 52.003], [-171.787, 51.993], [-171.737, 51.985], [-171.686, 51.978], [-171.635, 51.972], [-171.583, 51.967], [-171.532, 51.963], [-171.48, 51.961], [-171.428, 51.959], [-171.376, 51.958], [-171.324, 51.959], [-171.272, 51.961], [-171.22, 51.963], [-171.168, 51.967], [-171.116, 51.972], [-171.065, 51.978], [-171.015, 51.985], [-170.964, 51.993], [-170.915, 52.003], [-170.865, 52.013], [-170.817, 52.024], [-170.769, 52.036], [-170.721, 52.05], [-170.675, 52.064], [-170.63, 52.079], [-170.585, 52.095], [-170.541, 52.113], [-170.499, 52.131], [-170.457, 52.149], [-170.416, 52.169], [-170.377, 52.19], [-170.339, 52.211], [-170.302, 52.234], [-170.267, 52.257], [-170.233, 52.28], [-170.2, 52.305], [-170.168, 52.33], [-170.139, 52.356], [-170.11, 52.382], [-170.083, 52.409], [-170.058, 52.436], [-170.034, 52.464], [-170.012, 52.493], [-169.992, 52.522], [-169.973, 52.551], [-169.957, 52.581], [-169.941, 52.611], [-169.928, 52.641], [-169.916, 52.672], [-169.906, 52.703], [-169.898, 52.734], [-169.892, 52.765], [-169.887, 52.797], [-169.884, 52.828], [-169.883, 52.859]]]}}]}