{"type": "FeatureCollection", "features": [{"type": "Feature", "id": "VO10001491Centroid", "properties": {"description": "Eruption  Chikurachki", "name": "Eruption  Chikurachki", "htmldescription": "Green Eruption Chikurachki in Russia at: 21 Sep 2026 00:00:00.", "link": "https://www.gdacs.org/report.aspx?eventtype=VO&eventid=1000149&episodeid=1", "featureIndex": "12", "iconeventlink": "https://www.gdacs.org/images/gdacs_icons/maps/Green/VO.png", "iconitemlink": "https://www.gdacs.org/images/gdacs_icons/maps/Green/VO.png", "alertlevel": "Green", "alertscore": "0.5", "alertlevelepisode": "Green", "alertscoreepisode": "0.5", "eventtype": "VO", "eventid": "1000149", "episodeid": "1", "eventname": "Chikurachki", "fromdate": "21 Sep 2026 00:00:00", "todate": "21 Sep 2026 00:00:00", "country": "Russia", "countrylist": "Russia", "iso3": "RUS", "severity": "0", "latitude": "50.324", "longitude": "155.461", "imageoverview": "https://www.gdacs.org/utility/createimages.aspx?mapservice=ecml/gdacsVOVAAC&bboxSR=&layers=&layerdefs=0:VOLC_NAME='Chikurachki'%20AND%20ADVISORY_NUMBER='2026/1';1:NAME='Chikurachki'&imageSR=&format=png24&transparent=false&dpi=&bbox=151.461,46.324,159.461,54.324&size=500,350&filename=gdacs/vo/voChik_2.png&f=cache", "polygonlabel": "Centroid", "Class": "Point_Centroid"}, "geometry": {"type": "Point", "coordinates": [155.461, 50.324]}}, {"type": "Feature", "id": "VO10001491Circle", "properties": {"description": "Eruption  Chikurachki", "name": "Eruption  Chikurachki", "htmldescription": "Green Eruption Chikurachki in Russia at: 21 Sep 2026 00:00:00.", "link": "https://www.gdacs.org/report.aspx?eventtype=VO&eventid=1000149&episodeid=1", "featureIndex": "13", "iconeventlink": "https://www.gdacs.org/images/gdacs_icons/maps/Green/VO.png", "iconitemlink": "https://www.gdacs.org/images/gdacs_icons/maps/Green/VO.png", "alertlevel": "Green", "eventtype": "VO", "eventname": "Chikurachki", "polygonlabel": "30Km", "polygontype": "Circle", "fromdate": "21 Sep 2026 00:00:00", "todate": "21 Sep 2026 00:00:00", "country": "Russia", "countrylist": "Russia", "iso3": "RUS", "severity": "0", "latitude": "50.324", "longitude": "155.461", "imageoverview": "https://www.gdacs.org/utility/createimages.aspx?mapservice=ecml/gdacsVOVAAC&bboxSR=&layers=&layerdefs=0:VOLC_NAME='Chikurachki'%20AND%20ADVISORY_NUMBER='2026/1';1:NAME='Chikurachki'&imageSR=&format=png24&transparent=false&dpi=&bbox=151.461,46.324,159.461,54.324&size=500,350&filename=gdacs/vo/voChik_2.png&f=cache", "Class": "Poly_Circle"}, "geometry": {"type": "Polygon", "coordinates": [[[155.884, 50.324], [155.884, 50.333], [155.883, 50.343], [155.882, 50.352], [155.88, 50.362], [155.878, 50.371], [155.875, 50.38], [155.872, 50.389], [155.868, 50.398], [155.864, 50.408], [155.859, 50.416], [155.854, 50.425], [155.848, 50.434], [155.841, 50.442], [155.835, 50.451], [155.828, 50.459], [155.82, 50.467], [155.812, 50.475], [155.803, 50.483], [155.795, 50.49], [155.785, 50.498], [155.776, 50.505], [155.766, 50.512], [155.755, 50.518], [155.744, 50.525], [155.733, 50.531], [155.722, 50.537], [155.71, 50.543], [155.698, 50.548], [155.685, 50.553], [155.673, 50.558], [155.66, 50.563], [155.647, 50.567], [155.633, 50.571], [155.62, 50.575], [155.606, 50.578], [155.592, 50.581], [155.578, 50.584], [155.563, 50.586], [155.549, 50.588], [155.535, 50.59], [155.52, 50.592], [155.505, 50.593], [155.491, 50.594], [155.476, 50.594], [155.461, 50.594], [155.446, 50.594], [155.431, 50.594], [155.417, 50.593], [155.402, 50.592], [155.387, 50.59], [155.373, 50.588], [155.359, 50.586], [155.344, 50.584], [155.33, 50.581], [155.316, 50.578], [155.302, 50.575], [155.289, 50.571], [155.275, 50.567], [155.262, 50.563], [155.249, 50.558], [155.237, 50.553], [155.224, 50.548], [155.212, 50.543], [155.2, 50.537], [155.189, 50.531], [155.178, 50.525], [155.167, 50.518], [155.156, 50.512], [155.146, 50.505], [155.137, 50.498], [155.127, 50.49], [155.119, 50.483], [155.11, 50.475], [155.102, 50.467], [155.094, 50.459], [155.087, 50.451], [155.081, 50.442], [155.074, 50.434], [155.068, 50.425], [155.063, 50.416], [155.058, 50.408], [155.054, 50.398], [155.05, 50.389], [155.047, 50.38], [155.044, 50.371], [155.042, 50.362], [155.04, 50.352], [155.039, 50.343], [155.038, 50.333], [155.038, 50.324], [155.038, 50.315], [155.039, 50.305], [155.04, 50.296], [155.042, 50.286], [155.044, 50.277], [155.047, 50.268], [155.05, 50.259], [155.054, 50.25], [155.058, 50.24], [155.063, 50.232], [155.068, 50.223], [155.074, 50.214], [155.081, 50.206], [155.087, 50.197], [155.094, 50.189], [155.102, 50.181], [155.11, 50.173], [155.119, 50.165], [155.127, 50.158], [155.137, 50.15], [155.146, 50.143], [155.156, 50.136], [155.167, 50.13], [155.178, 50.123], [155.189, 50.117], [155.2, 50.111], [155.212, 50.105], [155.224, 50.1], [155.237, 50.095], [155.249, 50.09], [155.262, 50.085], [155.275, 50.081], [155.289, 50.077], [155.302, 50.073], [155.316, 50.07], [155.33, 50.067], [155.344, 50.064], [155.359, 50.062], [155.373, 50.06], [155.387, 50.058], [155.402, 50.056], [155.417, 50.055], [155.431, 50.054], [155.446, 50.054], [155.461, 50.054], [155.476, 50.054], [155.491, 50.054], [155.505, 50.055], [155.52, 50.056], [155.535, 50.058], [155.549, 50.06], [155.563, 50.062], [155.578, 50.064], [155.592, 50.067], [155.606, 50.07], [155.62, 50.073], [155.633, 50.077], [155.647, 50.081], [155.66, 50.085], [155.673, 50.09], [155.685, 50.095], [155.698, 50.1], [155.71, 50.105], [155.722, 50.111], [155.733, 50.117], [155.744, 50.123], [155.755, 50.13], [155.766, 50.136], [155.776, 50.143], [155.785, 50.15], [155.795, 50.158], [155.803, 50.165], [155.812, 50.173], [155.82, 50.181], [155.828, 50.189], [155.835, 50.197], [155.841, 50.206], [155.848, 50.214], [155.854, 50.223], [155.859, 50.232], [155.864, 50.24], [155.868, 50.25], [155.872, 50.259], [155.875, 50.268], [155.878, 50.277], [155.88, 50.286], [155.882, 50.296], [155.883, 50.305], [155.884, 50.315], [155.884, 50.324], [155.884, 50.324]]]}}, {"type": "Feature", "id": "VO10001491Cones_0", "properties": {"description": "Eruption  Chikurachki", "name": "Eruption  Chikurachki", "htmldescription": "Green Eruption Chikurachki in Russia at: 21 Sep 2026 00:00:00.", "link": "https://www.gdacs.org/report.aspx?eventtype=VO&eventid=1000149&episodeid=1", "featureIndex": "14", "iconeventlink": "https://www.gdacs.org/images/gdacs_icons/maps/Green/VO.png", "iconitemlink": "https://www.gdacs.org/images/gdacs_icons/maps/Green/VO.png", "alertlevel": "Green", "eventtype": "VO", "eventname": "Chikurachki", "polygonlabel": "OBS", "polygontype": "Cones_0", "fromdate": "21 Sep 2026 00:00:00", "todate": "21 Sep 2026 00:00:00", "country": "Russia", "countrylist": "Russia", "iso3": "RUS", "severity": "0", "latitude": "50.324", "longitude": "155.461", "imageoverview": "https://www.gdacs.org/utility/createimages.aspx?mapservice=ecml/gdacsVOVAAC&bboxSR=&layers=&layerdefs=0:VOLC_NAME='Chikurachki'%20AND%20ADVISORY_NUMBER='2026/1';1:NAME='Chikurachki'&imageSR=&format=png24&transparent=false&dpi=&bbox=151.461,46.324,159.461,54.324&size=500,350&filename=gdacs/vo/voChik_2.png&f=cache", "Class": "Poly_Cones_0"}, "geometry": {"type": "Polygon", "coordinates": [[[155.35, 50.35], [156.0, 51.05], [156.266666666667, 50.9333333333333], [155.466666666667, 50.2833333333333], [155.35, 50.35]]]}}, {"type": "Feature", "id": "VO10001491Cones_12", "properties": {"description": "Eruption  Chikurachki", "name": "Eruption  Chikurachki", "htmldescription": "Green Eruption Chikurachki in Russia at: 21 Sep 2026 00:00:00.", "link": "https://www.gdacs.org/report.aspx?eventtype=VO&eventid=1000149&episodeid=1", "featureIndex": "15", "iconeventlink": "https://www.gdacs.org/images/gdacs_icons/maps/Green/VO.png", "iconitemlink": "https://www.gdacs.org/images/gdacs_icons/maps/Green/VO.png", "alertlevel": "Green", "eventtype": "VO", "eventname": "Chikurachki", "polygonlabel": "FCST 12h", "polygontype": "Cones_12", "fromdate": "21 Sep 2026 00:00:00", "todate": "21 Sep 2026 00:00:00", "country": "Russia", "countrylist": "Russia", "iso3": "RUS", "severity": "0", "latitude": "50.324", "longitude": "155.461", "imageoverview": "https://www.gdacs.org/utility/createimages.aspx?mapservice=ecml/gdacsVOVAAC&bboxSR=&layers=&layerdefs=0:VOLC_NAME='Chikurachki'%20AND%20ADVISORY_NUMBER='2026/1';1:NAME='Chikurachki'&imageSR=&format=png24&transparent=false&dpi=&bbox=151.461,46.324,159.461,54.324&size=500,350&filename=gdacs/vo/voChik_2.png&f=cache", "Class": "Poly_Cones_12"}, "geometry": {"type": "Polygon", "coordinates": [[[161.366666666667, 51.3666666666667], [155.4, 50.1833333333333], [156.2, 53.8833333333333], [158.816666666667, 54.05], [161.366666666667, 51.3666666666667]]]}}, {"type": "Feature", "id": "VO10001491Cones_18", "properties": {"description": "Eruption  Chikurachki", "name": "Eruption  Chikurachki", "htmldescription": "Green Eruption Chikurachki in Russia at: 21 Sep 2026 00:00:00.", "link": "https://www.gdacs.org/report.aspx?eventtype=VO&eventid=1000149&episodeid=1", "featureIndex": "16", "iconeventlink": "https://www.gdacs.org/images/gdacs_icons/maps/Green/VO.png", "iconitemlink": "https://www.gdacs.org/images/gdacs_icons/maps/Green/VO.png", "alertlevel": "Green", "eventtype": "VO", "eventname": "Chikurachki", "polygonlabel": "FCST 18h", "polygontype": "Cones_18", "fromdate": "21 Sep 2026 00:00:00", "todate": "21 Sep 2026 00:00:00", "country": "Russia", "countrylist": "Russia", "iso3": "RUS", "severity": "0", "latitude": "50.324", "longitude": "155.461", "imageoverview": "https://www.gdacs.org/utility/createimages.aspx?mapservice=ecml/gdacsVOVAAC&bboxSR=&layers=&layerdefs=0:VOLC_NAME='Chikurachki'%20AND%20ADVISORY_NUMBER='2026/1';1:NAME='Chikurachki'&imageSR=&format=png24&transparent=false&dpi=&bbox=151.461,46.324,159.461,54.324&size=500,350&filename=gdacs/vo/voChik_2.png&f=cache", "Class": "Poly_Cones_18"}, "geometry": {"type": "Polygon", "coordinates": [[[163.6, 53.15], [163.416666666667, 51.3666666666667], [156.933333333333, 49.6333333333333], [155.5, 50.3333333333333], [160.683333333333, 56.1833333333333], [163.6, 53.15]]]}}, {"type": "Feature", "id": "VO10001491Cones_6", "properties": {"description": "Eruption  Chikurachki", "name": "Eruption  Chikurachki", "htmldescription": "Green Eruption Chikurachki in Russia at: 21 Sep 2026 00:00:00.", "link": "https://www.gdacs.org/report.aspx?eventtype=VO&eventid=1000149&episodeid=1", "featureIndex": "17", "iconeventlink": "https://www.gdacs.org/images/gdacs_icons/maps/Green/VO.png", "iconitemlink": "https://www.gdacs.org/images/gdacs_icons/maps/Green/VO.png", "alertlevel": "Green", "eventtype": "VO", "eventname": "Chikurachki", "polygonlabel": "FCST 6h", "polygontype": "Cones_6", "fromdate": "21 Sep 2026 00:00:00", "todate": "21 Sep 2026 00:00:00", "country": "Russia", "countrylist": "Russia", "iso3": "RUS", "severity": "0", "latitude": "50.324", "longitude": "155.461", "imageoverview": "https://www.gdacs.org/utility/createimages.aspx?mapservice=ecml/gdacsVOVAAC&bboxSR=&layers=&layerdefs=0:VOLC_NAME='Chikurachki'%20AND%20ADVISORY_NUMBER='2026/1';1:NAME='Chikurachki'&imageSR=&format=png24&transparent=false&dpi=&bbox=151.461,46.324,159.461,54.324&size=500,350&filename=gdacs/vo/voChik_2.png&f=cache", "Class": "Poly_Cones_6"}, "geometry": {"type": "Polygon", "coordinates": [[[158.666666666667, 51.6666666666667], [158.716666666667, 51.15], [155.4, 50.2333333333333], [155.316666666667, 52.25], [158.666666666667, 51.6666666666667]]]}}]}